[{"OBJECT_NAME":"STARLINK-34432","OBJECT_ID":"2025-129Q","EPOCH":"2026-03-09T09:33:47.858112","MEAN_MOTION":14.98326888,"ECCENTRICITY":0.00029628,"INCLINATION":70.0028,"RA_OF_ASC_NODE":75.1898,"ARG_OF_PERICENTER":245.8754,"MEAN_ANOMALY":114.2096,"EPHEMERIS_TYPE":0,"CLASSIFICATION_TYPE":"U","NORAD_CAT_ID":64426,"ELEMENT_SET_NO":999,"REV_AT_EPOCH":4118,"BSTAR":-0.00013251426,"MEAN_MOTION_DOT":-1.674e-5,"MEAN_MOTION_DDOT":0},{"OBJECT_NAME":"OKEAN-4","OBJECT_ID":"1994-066A","EPOCH":"2026-03-09T20:34:09.232320","MEAN_MOTION":14.96885016,"ECCENTRICITY":0.00147251,"INCLINATION":82.5373,"RA_OF_ASC_NODE":349.8556,"ARG_OF_PERICENTER":246.8531,"MEAN_ANOMALY":113.1141,"EPHEMERIS_TYPE":0,"CLASSIFICATION_TYPE":"U","NORAD_CAT_ID":23317,"ELEMENT_SET_NO":999,"REV_AT_EPOCH":70047,"BSTAR":0.00028288801,"MEAN_MOTION_DOT":3.276e-5,"MEAN_MOTION_DDOT":0}]
